     2.100          NAVIGATION                              RINEX VERSION / TYPE
fic2rin                                 03/17/2012 00:04:07 PGM / RUN BY / DATE
                                                            END OF HEADER
16 12  3 17  0  0  0.0 -.227672513574D-03 -.147792889038D-11  .000000000000D+00
     .450000000000D+02 -.519375000000D+02  .427124934325D-08  .913897227259D+00
    -.262632966042D-05  .652869453188D-02  .412389636040D-05  .515363491249D+04
     .518400000000D+06  .558793544769D-07 -.190692681822D+01  .316649675369D-07
     .979543510948D+00  .304687500000D+03 -.672523834117D-01 -.816891169653D-08
    -.218937691062D-09  .100000000000D+01  .167900000000D+04  .000000000000D+00
     .240000000000D+01  .000000000000D+00 -.977888703346D-08  .450000000000D+02
     .511206000000D+06  .400000000000D+01
17 12  3 17  0  0  0.0  .142163597047D-03 -.250111042988D-11  .000000000000D+00
     .240000000000D+02 -.615312500000D+02  .440125475850D-08 -.708467175416D-01
    -.318139791489D-05  .726548139937D-02  .103674829006D-04  .515365516281D+04
     .518400000000D+06  .242143869400D-07 -.865577294723D+00  .147148966789D-06
     .962558821387D+00  .181968750000D+03 -.232247049949D+01 -.806997900416D-08
     .503592405216D-10  .100000000000D+01  .167900000000D+04  .000000000000D+00
     .240000000000D+01  .000000000000D+00 -.107102096081D-07  .240000000000D+02
     .511206000000D+06  .400000000000D+01
18 12  3 17  0  0  0.0  .186492688954D-03  .181898940355D-11  .000000000000D+00
     .280000000000D+02 -.250000000000D+01  .554344519246D-08  .140426599229D+01
    -.126659870148D-06  .129362508887D-01  .646710395813D-05  .515367285347D+04
     .518400000000D+06 -.275671482086D-06  .120421269104D+01  .279396772385D-07
     .930113289420D+00  .239437500000D+03 -.219123297001D+01 -.872536344641D-08
    -.248581783000D-09  .100000000000D+01  .167900000000D+04  .000000000000D+00
     .240000000000D+01  .000000000000D+00 -.107102096081D-07  .280000000000D+02
     .511206000000D+06  .400000000000D+01
19 12  3 17  0  0  0.0 -.246204435825D-03 -.386535248253D-11  .000000000000D+00
     .150000000000D+02 -.507812500000D+02  .437553940164D-08 -.890030024546D+00
    -.272877514362D-05  .801045564003D-02  .101961195469D-04  .515376317787D+04
     .518400000000D+06  .171363353729D-06 -.812334755495D+00 -.176951289177D-06
     .959994675632D+00  .183593750000D+03  .140856152938D+00 -.793568769610D-08
     .571452374714D-11  .100000000000D+01  .167900000000D+04  .000000000000D+00
     .240000000000D+01  .000000000000D+00 -.144354999065D-07  .150000000000D+02
     .511206000000D+06  .400000000000D+01
20 12  3 17  0  0  0.0  .633616000414D-04 -.113686837722D-12  .000000000000D+00
     .800000000000D+02 -.218750000000D+00  .538808157808D-08  .177529043437D+01
    -.596046447754D-07  .512081081979D-02  .632554292679D-05  .515373917961D+04
     .518400000000D+06 -.372529029846D-07  .115042582340D+01 -.894069671631D-07
     .930554227559D+00  .240500000000D+03  .128494730698D+01 -.849428239239D-08
    -.144648882349D-09  .100000000000D+01  .167900000000D+04  .000000000000D+00
     .240000000000D+01  .000000000000D+00 -.791624188423D-08  .800000000000D+02
     .511206000000D+06  .400000000000D+01
21 12  3 17  0  0  0.0 -.211105216295D-03 -.250111042988D-11  .000000000000D+00
     .520000000000D+02  .182187500000D+02  .512164190837D-08  .246064442285D+01
     .739470124245D-06  .187817446422D-01  .864453613758D-05  .515363848495D+04
     .518400000000D+06 -.447034835815D-07  .152848028905D+00 -.366941094398D-06
     .931868562900D+00  .196250000000D+03 -.227996931776D+01 -.805604985253D-08
     .372872674501D-09  .100000000000D+01  .167900000000D+04  .000000000000D+00
     .240000000000D+01  .000000000000D+00 -.111758708954D-07  .520000000000D+02
     .511206000000D+06  .400000000000D+01
23 12  3 17  0  0  0.0  .223618466407D-03 -.352429196937D-11  .000000000000D+00
     .101000000000D+03  .436562500000D+02  .445161399902D-08 -.131886371238D+01
     .204145908356D-05  .762070249766D-02  .914558768272D-05  .515365887070D+04
     .518400000000D+06  .502914190292D-07  .225458844395D+01 -.106170773506D-06
     .960845966680D+00  .202437500000D+03 -.302831005606D+01 -.795390274055D-08
    -.810748056625D-10  .100000000000D+01  .167900000000D+04  .000000000000D+00
     .240000000000D+01  .000000000000D+00 -.200234353542D-07  .101000000000D+03
     .511206000000D+06  .400000000000D+01
24 12  3 17  0  0  0.0 -.245403498411D-06  .500222085975D-11  .000000000000D+00
     .160000000000D+02  .399687500000D+02  .398445168269D-08 -.109714322654D+01
     .225380063057D-05  .855831115041D-02  .981241464615D-05  .515373797607D+04
     .518400000000D+06 -.484287738800D-07  .233777947929D+01  .212341547012D-06
     .982144731436D+00  .204093750000D+03 -.183395871586D+01 -.780782522726D-08
    -.157506560780D-09  .100000000000D+01  .167900000000D+04  .000000000000D+00
     .340000000000D+01  .630000000000D+02 -.372529029846D-08  .160000000000D+02
     .511206000000D+06  .400000000000D+01
26 12  3 17  0  0  0.0 -.165911857039D-03 -.567297320231D-10  .000000000000D+00
     .600000000000D+02  .613437500000D+02  .390016245742D-08 -.145620065788D+01
     .343658030033D-05  .209073169390D-01  .100526958704D-04  .515365959930D+04
     .518400000000D+06  .379979610443D-06  .232579657248D+01  .325962901115D-06
     .983986438505D+00  .194531250000D+03  .117805728841D+01 -.764996150875D-08
    -.140362989539D-09  .100000000000D+01  .167900000000D+04  .000000000000D+00
     .240000000000D+01  .000000000000D+00 -.605359673500D-08  .600000000000D+02
     .511206000000D+06  .400000000000D+01
27 12  3 17  0  0  0.0  .367549248040D-03  .397903932026D-11  .000000000000D+00
     .440000000000D+02  .630937500000D+02  .426946355458D-08 -.514975730303D+00
     .320188701153D-05  .218505146913D-01  .650621950626D-05  .515375885963D+04
     .518400000000D+06 -.331550836563D-06 -.303375080932D+01 -.143423676491D-06
     .982219122283D+00  .271468750000D+03 -.110956652583D+01 -.838749222986D-08
     .385730352932D-09  .100000000000D+01  .167900000000D+04  .000000000000D+00
     .240000000000D+01  .000000000000D+00 -.419095158577D-08  .440000000000D+02
     .511206000000D+06  .400000000000D+01
28 12  3 17  0  0  0.0  .123340170830D-03  .397903932026D-11  .000000000000D+00
     .430000000000D+02 -.642500000000D+02  .443982779379D-08  .505002387239D+00
    -.324845314026D-05  .178930755937D-01  .519305467606D-05  .515370947266D+04
     .518400000000D+06 -.227242708206D-06 -.190009546185D+01  .391155481339D-07
     .977886264682D+00  .293718750000D+03 -.183395665753D+01 -.851499754097D-08
    -.290369237901D-09  .100000000000D+01  .167900000000D+04  .000000000000D+00
     .240000000000D+01  .000000000000D+00 -.107102096081D-07  .430000000000D+02
     .511206000000D+06  .400000000000D+01
29 12  3 17  0  0  0.0  .294415745884D-03  .352429196937D-11  .000000000000D+00
     .820000000000D+02 -.706250000000D+02  .429053586090D-08  .272404840844D+01
    -.372342765331D-05  .230634131003D-02  .978820025921D-05  .515362030602D+04
     .518400000000D+06  .260770320892D-07 -.857042419988D+00  .316649675369D-07
     .963084431761D+00  .191406250000D+03 -.118239074727D+01 -.784068373881D-08
     .357157734196D-12  .100000000000D+01  .167900000000D+04  .000000000000D+00
     .240000000000D+01  .000000000000D+00 -.931322574615D-08  .820000000000D+02
     .511206000000D+06  .400000000000D+01
30 12  3 17  0  0  0.0 -.867969356477D-04 -.173940861714D-10  .000000000000D+00
     .650000000000D+02 -.380000000000D+02  .485234497679D-08 -.215562191739D+00
    -.179558992386D-05  .109084015712D-01  .392273068428D-05  .515362929535D+04
     .518400000000D+06 -.108033418655D-06 -.204854230171D+01 -.558793544769D-08
     .958840436193D+00  .302031250000D+03  .155604079962D+01 -.863678832833D-08
    -.621454457501D-10  .100000000000D+01  .167900000000D+04  .000000000000D+00
     .136500000000D+02  .000000000000D+00 -.419095158577D-08  .650000000000D+02
     .511206000000D+06  .400000000000D+01
31 12  3 17  0  0  0.0  .220328569412D-03  .443378667114D-11  .000000000000D+00
     .300000000000D+02  .665937500000D+02  .416303054979D-08 -.291394089075D+01
     .357069075108D-05  .795273901895D-02  .598467886448D-05  .515361392975D+04
     .518400000000D+06 -.465661287308D-07 -.297823967036D+01  .156462192535D-06
     .981045120284D+00  .275031250000D+03 -.883087673655D+00 -.787318509262D-08
     .213937482783D-09  .100000000000D+01  .167900000000D+04  .000000000000D+00
     .240000000000D+01  .000000000000D+00 -.130385160446D-07  .300000000000D+02
     .511206000000D+06  .400000000000D+01
32 12  3 17  0  0  0.0 -.421161763370D-03 -.477484718431D-11  .000000000000D+00
     .430000000000D+02  .290625000000D+01  .479769984346D-08 -.229876995679D+01
     .309199094772D-06  .118502536789D-01  .699423253536D-05  .515372074699D+04
     .518400000000D+06 -.244006514549D-06  .128135414026D+01  .199303030968D-06
     .952002840477D+00  .241562500000D+03 -.602311831380D+00 -.813355308085D-08
    -.209651589973D-09  .100000000000D+01  .167900000000D+04  .000000000000D+00
     .240000000000D+01  .000000000000D+00 -.279396772385D-08  .430000000000D+02
     .511206000000D+06  .400000000000D+01
